start=new Date('2023-04-07T00:00:00.000Z').valueOf();
sats=[{"PERIAPSIS":"538.501","GP_ID":"229615933","ELEMENT_SET_NO":"999","OBJECT_TYPE":"PAYLOAD","TIME_SYSTEM":"UTC","OBJECT_ID":"2022-119AK","REV_AT_EPOCH":"3020","SITE":"AFETR","OBJECT_NAME":"STARLINK-5023","RA_OF_ASC_NODE":"67.5693","COUNTRY_CODE":"US","MEAN_MOTION_DOT":"0.00002703","SEMIMAJOR_AXIS":"6917.883","APOAPSIS":"540.995","INCLINATION":"53.2183","ARG_OF_PERICENTER":"98.0689","BSTAR":"0.00018787000000","NORAD_CAT_ID":"53919","CLASSIFICATION_TYPE":"U","PERIOD":"95.438","DECAY_DATE":null,"REF_FRAME":"TEME","CENTER_NAME":"EARTH","MEAN_ANOMALY":"262.0508","MEAN_ELEMENT_THEORY":"SGP4","MEAN_MOTION":"15.08839165","FILE":"3881822","TLE_LINE1":"1 53919U 22119AK  23096.87917892  .00002703  00000-0  18787-3 0  9999","EPOCH":"2023-04-06T21:06:01.058688","LAUNCH_DATE":"2022-09-24","TLE_LINE2":"2 53919  53.2183  67.5693 0001802  98.0689 262.0508 15.08839165 30202","ECCENTRICITY":"0.00018020","MEAN_MOTION_DDOT":"0.0000000000000","EPHEMERIS_TYPE":"0","RCS_SIZE":"LARGE"},{"REF_FRAME":"TEME","MEAN_ANOMALY":"262.5450","CENTER_NAME":"EARTH","MEAN_ELEMENT_THEORY":"SGP4","DECAY_DATE":null,"PERIOD":"95.437","TLE_LINE1":"1 53920U 22119AL  23096.34188127  .00001438  00000-0  10840-3 0  9990","MEAN_MOTION":"15.08847750","FILE":"3881771","LAUNCH_DATE":"2022-09-24","EPOCH":"2023-04-06T08:12:18.541728","RCS_SIZE":"LARGE","TLE_LINE2":"2 53920  53.2171  69.9062 0001163  97.5674 262.5450 15.08847750 30542","ECCENTRICITY":"0.00011630","EPHEMERIS_TYPE":"0","MEAN_MOTION_DDOT":"0.0000000000000","ELEMENT_SET_NO":"999","GP_ID":"229613129","OBJECT_TYPE":"PAYLOAD","PERIAPSIS":"538.917","REV_AT_EPOCH":"3054","TIME_SYSTEM":"UTC","OBJECT_ID":"2022-119AL","SEMIMAJOR_AXIS":"6917.857","MEAN_MOTION_DOT":"0.00001438","INCLINATION":"53.2171","APOAPSIS":"540.526","SITE":"AFETR","OBJECT_NAME":"STARLINK-5025","RA_OF_ASC_NODE":"69.9062","COUNTRY_CODE":"US","BSTAR":"0.00010840000000","NORAD_CAT_ID":"53920","CLASSIFICATION_TYPE":"U","ARG_OF_PERICENTER":"97.5674"},{"PERIAPSIS":"538.527","GP_ID":"229646713","ELEMENT_SET_NO":"999","OBJECT_TYPE":"PAYLOAD","TIME_SYSTEM":"UTC","OBJECT_ID":"2022-119AN","REV_AT_EPOCH":"3063","OBJECT_NAME":"STARLINK-5002","SITE":"AFETR","RA_OF_ASC_NODE":"67.2093","COUNTRY_CODE":"US","MEAN_MOTION_DOT":"0.00001615","SEMIMAJOR_AXIS":"6917.897","APOAPSIS":"540.997","INCLINATION":"53.2172","ARG_OF_PERICENTER":"79.5456","BSTAR":"0.00011959000000","CLASSIFICATION_TYPE":"U","NORAD_CAT_ID":"53922","PERIOD":"95.438","DECAY_DATE":null,"REF_FRAME":"TEME","MEAN_ANOMALY":"280.5737","CENTER_NAME":"EARTH","MEAN_ELEMENT_THEORY":"SGP4","MEAN_MOTION":"15.08834571","FILE":"3882049","TLE_LINE1":"1 53922U 22119AN  23096.93436715  .00001615  00000-0  11959-3 0  9995","EPOCH":"2023-04-06T22:25:29.321760","LAUNCH_DATE":"2022-09-24","ECCENTRICITY":"0.00017850","TLE_LINE2":"2 53922  53.2172  67.2093 0001785  79.5456 280.5737 15.08834571 30633","EPHEMERIS_TYPE":"0","MEAN_MOTION_DDOT":"0.0000000000000","RCS_SIZE":"LARGE"},{"ELEMENT_SET_NO":"999","GP_ID":"229615764","OBJECT_TYPE":"PAYLOAD","PERIAPSIS":"538.780","REV_AT_EPOCH":"3020","OBJECT_ID":"2022-119AP","TIME_SYSTEM":"UTC","SEMIMAJOR_AXIS":"6917.903","MEAN_MOTION_DOT":"0.00000246","INCLINATION":"53.2202","APOAPSIS":"540.755","OBJECT_NAME":"STARLINK-5004","SITE":"AFETR","RA_OF_ASC_NODE":"67.5483","COUNTRY_CODE":"US","BSTAR":"0.00003356700000","CLASSIFICATION_TYPE":"U","NORAD_CAT_ID":"53923","ARG_OF_PERICENTER":"87.1609","REF_FRAME":"TEME","MEAN_ANOMALY":"272.9547","CENTER_NAME":"EARTH","MEAN_ELEMENT_THEORY":"SGP4","DECAY_DATE":null,"PERIOD":"95.438","TLE_LINE1":"1 53923U 22119AP  23096.87549542  .00000246  00000-0  33567-4 0  9991","MEAN_MOTION":"15.08832708","FILE":"3881824","LAUNCH_DATE":"2022-09-24","EPOCH":"2023-04-06T21:00:42.804288","RCS_SIZE":"LARGE","TLE_LINE2":"2 53923  53.2202  67.5483 0001427  87.1609 272.9547 15.08832708 30209","ECCENTRICITY":"0.00014270","MEAN_MOTION_DDOT":"0.0000000000000","EPHEMERIS_TYPE":"0"},{"MEAN_MOTION_DOT":"0.00005624","SEMIMAJOR_AXIS":"6917.856","APOAPSIS":"540.742","INCLINATION":"53.2183","SITE":"AFETR","OBJECT_NAME":"STARLINK-5001","COUNTRY_CODE":"US","RA_OF_ASC_NODE":"65.0492","BSTAR":"0.00037106000000","CLASSIFICATION_TYPE":"U","NORAD_CAT_ID":"53924","ARG_OF_PERICENTER":"91.8217","GP_ID":"229613881","ELEMENT_SET_NO":"999","OBJECT_TYPE":"PAYLOAD","PERIAPSIS":"538.701","REV_AT_EPOCH":"3061","OBJECT_ID":"2022-119AQ","TIME_SYSTEM":"UTC","LAUNCH_DATE":"2022-09-24","EPOCH":"2023-04-06T08:43:32.708928","RCS_SIZE":"LARGE","TLE_LINE2":"2 53924  53.2183  65.0492 0001475  91.8217 268.2944 15.08847930 30618","ECCENTRICITY":"0.00014750","EPHEMERIS_TYPE":"0","MEAN_MOTION_DDOT":"0.0000000000000","REF_FRAME":"TEME","CENTER_NAME":"EARTH","MEAN_ANOMALY":"268.2944","MEAN_ELEMENT_THEORY":"SGP4","PERIOD":"95.437","DECAY_DATE":null,"TLE_LINE1":"1 53924U 22119AQ  23096.36357302  .00005624  00000-0  37106-3 0  9994","MEAN_MOTION":"15.08847930","FILE":"3881771"},{"MEAN_MOTION_DOT":"0.00008176","SEMIMAJOR_AXIS":"6917.851","APOAPSIS":"540.466","INCLINATION":"53.2158","OBJECT_NAME":"STARLINK-5011","SITE":"AFETR","RA_OF_ASC_NODE":"68.3130","COUNTRY_CODE":"US","BSTAR":"0.00053103000000","CLASSIFICATION_TYPE":"U","NORAD_CAT_ID":"53925","ARG_OF_PERICENTER":"74.4970","GP_ID":"229616265","ELEMENT_SET_NO":"999","OBJECT_TYPE":"PAYLOAD","PERIAPSIS":"538.966","REV_AT_EPOCH":"3017","TIME_SYSTEM":"UTC","OBJECT_ID":"2022-119AR","LAUNCH_DATE":"2022-09-24","EPOCH":"2023-04-06T15:42:42.808896","RCS_SIZE":"LARGE","ECCENTRICITY":"0.00010840","TLE_LINE2":"2 53925  53.2158  68.3130 0001084  74.4970 285.6141 15.08849684 30176","EPHEMERIS_TYPE":"0","MEAN_MOTION_DDOT":"0.0000000000000","REF_FRAME":"TEME","MEAN_ANOMALY":"285.6141","CENTER_NAME":"EARTH","MEAN_ELEMENT_THEORY":"SGP4","PERIOD":"95.437","DECAY_DATE":null,"TLE_LINE1":"1 53925U 22119AR  23096.65466214  .00008176  00000-0  53103-3 0  9990","MEAN_MOTION":"15.08849684","FILE":"3881848"},{"REV_AT_EPOCH":"3020","TIME_SYSTEM":"UTC","OBJECT_ID":"2022-119AS","OBJECT_TYPE":"PAYLOAD","ELEMENT_SET_NO":"999","GP_ID":"229615978","PERIAPSIS":"538.937","CLASSIFICATION_TYPE":"U","NORAD_CAT_ID":"53926","BSTAR":"0.00007470800000","ARG_OF_PERICENTER":"99.3507","INCLINATION":"53.2175","APOAPSIS":"540.464","SEMIMAJOR_AXIS":"6917.835","MEAN_MOTION_DOT":"0.00000902","RA_OF_ASC_NODE":"64.6149","COUNTRY_CODE":"US","OBJECT_NAME":"STARLINK-5014","SITE":"AFETR","TLE_LINE1":"1 53926U 22119AS  23096.40672947  .00000902  00000-0  74708-4 0  9990","FILE":"3881826","MEAN_MOTION":"15.08854738","MEAN_ANOMALY":"260.7610","MEAN_ELEMENT_THEORY":"SGP4","CENTER_NAME":"EARTH","REF_FRAME":"TEME","DECAY_DATE":null,"PERIOD":"95.437","RCS_SIZE":"LARGE","EPHEMERIS_TYPE":"0","MEAN_MOTION_DDOT":"0.0000000000000","TLE_LINE2":"2 53926  53.2175  64.6149 0001104  99.3507 260.7610 15.08854738 30205","ECCENTRICITY":"0.00011040","LAUNCH_DATE":"2022-09-24","EPOCH":"2023-04-06T09:45:41.426208"},{"TIME_SYSTEM":"UTC","OBJECT_ID":"2022-119AT","REV_AT_EPOCH":"3069","PERIAPSIS":"538.946","ELEMENT_SET_NO":"999","GP_ID":"229645486","OBJECT_TYPE":"PAYLOAD","ARG_OF_PERICENTER":"87.1202","BSTAR":"0.00003619700000","CLASSIFICATION_TYPE":"U","NORAD_CAT_ID":"53927","OBJECT_NAME":"STARLINK-5008","SITE":"AFETR","RA_OF_ASC_NODE":"62.6578","COUNTRY_CODE":"US","SEMIMAJOR_AXIS":"6917.891","MEAN_MOTION_DOT":"0.00000288","INCLINATION":"53.2193","APOAPSIS":"540.566","MEAN_MOTION":"15.08836475","FILE":"3882049","TLE_LINE1":"1 53927U 22119AT  23096.88885506  .00000288  00000-0  36197-4 0  9997","DECAY_DATE":null,"PERIOD":"95.438","REF_FRAME":"TEME","CENTER_NAME":"EARTH","MEAN_ANOMALY":"272.9924","MEAN_ELEMENT_THEORY":"SGP4","ECCENTRICITY":"0.00011710","TLE_LINE2":"2 53927  53.2193  62.6578 0001171  87.1202 272.9924 15.08836475 30695","MEAN_MOTION_DDOT":"0.0000000000000","EPHEMERIS_TYPE":"0","RCS_SIZE":"LARGE","EPOCH":"2023-04-06T21:19:57.077184","LAUNCH_DATE":"2022-09-24"},{"NORAD_CAT_ID":"53928","CLASSIFICATION_TYPE":"U","BSTAR":"-0.00014443000000","ARG_OF_PERICENTER":"92.5274","APOAPSIS":"540.442","INCLINATION":"53.2206","MEAN_MOTION_DOT":"-0.00002586","SEMIMAJOR_AXIS":"6917.855","RA_OF_ASC_NODE":"57.6014","COUNTRY_CODE":"US","OBJECT_NAME":"STARLINK-5009","SITE":"AFETR","REV_AT_EPOCH":"3034","OBJECT_ID":"2022-119AU","TIME_SYSTEM":"UTC","OBJECT_TYPE":"PAYLOAD","GP_ID":"229615796","ELEMENT_SET_NO":"999","PERIAPSIS":"538.998","RCS_SIZE":"LARGE","EPHEMERIS_TYPE":"0","MEAN_MOTION_DDOT":"0.0000000000000","ECCENTRICITY":"0.00010440","TLE_LINE2":"2 53928  53.2206  57.6014 0001044  92.5274 267.5838 15.08848319 30344","LAUNCH_DATE":"2022-09-24","EPOCH":"2023-04-06T21:07:21.294912","TLE_LINE1":"1 53928U 22119AU  23096.88010758 -.00002586  00000-0 -14443-3 0  9991","FILE":"3881826","MEAN_MOTION":"15.08848319","MEAN_ELEMENT_THEORY":"SGP4","MEAN_ANOMALY":"267.5838","CENTER_NAME":"EARTH","REF_FRAME":"TEME","PERIOD":"95.437","DECAY_DATE":null},{"EPOCH":"2023-04-06T22:20:10.606848","LAUNCH_DATE":"2022-09-24","EPHEMERIS_TYPE":"0","MEAN_MOTION_DDOT":"0.0000000000000","TLE_LINE2":"2 53929  53.2183  67.1855 0001280  89.0813 271.0326 15.08836028 30638","ECCENTRICITY":"0.00012800","RCS_SIZE":"LARGE","DECAY_DATE":null,"PERIOD":"95.438","MEAN_ANOMALY":"271.0326","CENTER_NAME":"EARTH","MEAN_ELEMENT_THEORY":"SGP4","REF_FRAME":"TEME","FILE":"3882049","MEAN_MOTION":"15.08836028","TLE_LINE1":"1 53929U 22119AV  23096.93067832  .00000581  00000-0  54595-4 0  9997","RA_OF_ASC_NODE":"67.1855","COUNTRY_CODE":"US","OBJECT_NAME":"STARLINK-5018","SITE":"AFETR","INCLINATION":"53.2183","APOAPSIS":"540.643","SEMIMAJOR_AXIS":"6917.893","MEAN_MOTION_DOT":"0.00000581","ARG_OF_PERICENTER":"89.0813","NORAD_CAT_ID":"53929","CLASSIFICATION_TYPE":"U","BSTAR":"0.00005459500000","PERIAPSIS":"538.872","OBJECT_TYPE":"PAYLOAD","ELEMENT_SET_NO":"999","GP_ID":"229646486","OBJECT_ID":"2022-119AV","TIME_SYSTEM":"UTC","REV_AT_EPOCH":"3063"}];
